{
  "type": "FeatureCollection",
  "features": [
    {
      "type": "Feature",
      "properties": {
        "norad_id": 66893,
        "name": "STARLINK-36033",
        "group": "last-30-days",
        "lat": -52.48822878183536,
        "lon": -36.45592128853729,
        "alt_km": 304.47679123066973,
        "timestamp": "2025-12-14T07:33:18.189223+00:00",
        "meta_object_name": "STARLINK-36033",
        "meta_object_id": "2025-283R",
        "meta_epoch": "2025-12-13T14:00:03.000384",
        "meta_mean_motion": 15.93070135,
        "meta_eccentricity": 0.00011032,
        "meta_inclination": 53.155,
        "meta_ra_of_asc_node": 69.6269,
        "meta_arg_of_pericenter": 50.2346,
        "meta_mean_anomaly": 337.4973,
        "meta_ephemeris_type": 0,
        "meta_classification_type": "U",
        "meta_norad_cat_id": 66893,
        "meta_element_set_no": 999,
        "meta_rev_at_epoch": 256,
        "meta_bstar": -0.0036815446,
        "meta_mean_motion_dot": -0.01320126,
        "meta_mean_motion_ddot": 0.00051212664,
        "tle_line1": "1 66893U 25283R   25347.58336806 -.01320126  51213-3 -36815-2 0  9999",
        "tle_line2": "2 66893  53.1550  69.6269 0001103  50.2346 337.4973 15.93070135  2569"
      },
      "geometry": {
        "type": "Point",
        "coordinates": [
          -36.45592128853729,
          -52.48822878183536
        ]
      }
    },
    {
      "type": "Feature",
      "properties": {
        "norad_id": 66894,
        "name": "STARLINK-35718",
        "group": "last-30-days",
        "lat": -52.898358454912966,
        "lon": -31.605929114577417,
        "alt_km": 304.3018260677718,
        "timestamp": "2025-12-14T07:33:18.189234+00:00",
        "meta_object_name": "STARLINK-35718",
        "meta_object_id": "2025-283S",
        "meta_epoch": "2025-12-13T14:00:03.000384",
        "meta_mean_motion": 15.93136769,
        "meta_eccentricity": 0.00010576,
        "meta_inclination": 53.1552,
        "meta_ra_of_asc_node": 69.6212,
        "meta_arg_of_pericenter": 50.2681,
        "meta_mean_anomaly": 340.2854,
        "meta_ephemeris_type": 0,
        "meta_classification_type": "U",
        "meta_norad_cat_id": 66894,
        "meta_element_set_no": 999,
        "meta_rev_at_epoch": 256,
        "meta_bstar": -0.003699643,
        "meta_mean_motion_dot": -0.01331131,
        "meta_mean_motion_ddot": 0.00052027445,
        "tle_line1": "1 66894U 25283S   25347.58336806 -.01331131  52027-3 -36996-2 0  9992",
        "tle_line2": "2 66894  53.1552  69.6212 0001057  50.2681 340.2854 15.93136769  2566"
      },
      "geometry": {
        "type": "Point",
        "coordinates": [
          -31.605929114577417,
          -52.898358454912966
        ]
      }
    },
    {
      "type": "Feature",
      "properties": {
        "norad_id": 66895,
        "name": "STARLINK-35971",
        "group": "last-30-days",
        "lat": -53.124626873415615,
        "lon": -22.606200403309035,
        "alt_km": 302.7558036343362,
        "timestamp": "2025-12-14T07:33:18.189244+00:00",
        "meta_object_name": "STARLINK-35971",
        "meta_object_id": "2025-283T",
        "meta_epoch": "2025-12-13T14:00:03.000384",
        "meta_mean_motion": 15.93120326,
        "meta_eccentricity": 9.366e-05,
        "meta_inclination": 53.1546,
        "meta_ra_of_asc_node": 69.6106,
        "meta_arg_of_pericenter": 66.7641,
        "meta_mean_anomaly": 328.5697,
        "meta_ephemeris_type": 0,
        "meta_classification_type": "U",
        "meta_norad_cat_id": 66895,
        "meta_element_set_no": 999,
        "meta_rev_at_epoch": 256,
        "meta_bstar": -0.0026402924,
        "meta_mean_motion_dot": -0.00952568,
        "meta_mean_motion_ddot": 0.00028336896,
        "tle_line1": "1 66895U 25283T   25347.58336806 -.00952568  28337-3 -26403-2 0  9994",
        "tle_line2": "2 66895  53.1546  69.6106 0000936  66.7641 328.5697 15.93120326  2561"
      },
      "geometry": {
        "type": "Point",
        "coordinates": [
          -22.606200403309035,
          -53.124626873415615
        ]
      }
    },
    {
      "type": "Feature",
      "properties": {
        "norad_id": 66896,
        "name": "STARLINK-35791",
        "group": "last-30-days",
        "lat": -53.09435730522759,
        "lon": -27.209574274199156,
        "alt_km": 304.1336385842551,
        "timestamp": "2025-12-14T07:33:18.189253+00:00",
        "meta_object_name": "STARLINK-35791",
        "meta_object_id": "2025-283U",
        "meta_epoch": "2025-12-13T14:00:03.000384",
        "meta_mean_motion": 15.93202412,
        "meta_eccentricity": 0.00010236,
        "meta_inclination": 53.1549,
        "meta_ra_of_asc_node": 69.6152,
        "meta_arg_of_pericenter": 50.954,
        "meta_mean_anomaly": 342.1078,
        "meta_ephemeris_type": 0,
        "meta_classification_type": "U",
        "meta_norad_cat_id": 66896,
        "meta_element_set_no": 999,
        "meta_rev_at_epoch": 256,
        "meta_bstar": -0.0037165823,
        "meta_mean_motion_dot": -0.01341719,
        "meta_mean_motion_ddot": 0.0005281835,
        "tle_line1": "1 66896U 25283U   25347.58336806 -.01341719  52818-3 -37166-2 0  9995",
        "tle_line2": "2 66896  53.1549  69.6152 0001023  50.9540 342.1078 15.93202412  2569"
      },
      "geometry": {
        "type": "Point",
        "coordinates": [
          -27.209574274199156,
          -53.09435730522759
        ]
      }
    },
    {
      "type": "Feature",
      "properties": {
        "norad_id": 66897,
        "name": "STARLINK-36079",
        "group": "last-30-days",
        "lat": -53.008736380687864,
        "lon": -18.65198145728833,
        "alt_km": 303.59766582442535,
        "timestamp": "2025-12-14T07:33:18.189266+00:00",
        "meta_object_name": "STARLINK-36079",
        "meta_object_id": "2025-283V",
        "meta_epoch": "2025-12-13T14:00:03.000384",
        "meta_mean_motion": 15.93319782,
        "meta_eccentricity": 8.473e-05,
        "meta_inclination": 53.1548,
        "meta_ra_of_asc_node": 69.6056,
        "meta_arg_of_pericenter": 60.1684,
        "meta_mean_anomaly": 337.753,
        "meta_ephemeris_type": 0,
        "meta_classification_type": "U",
        "meta_norad_cat_id": 66897,
        "meta_element_set_no": 999,
        "meta_rev_at_epoch": 256,
        "meta_bstar": -0.0037059079,
        "meta_mean_motion_dot": -0.01346084,
        "meta_mean_motion_ddot": 0.00053193207,
        "tle_line1": "1 66897U 25283V   25347.58336806 -.01346084  53193-3 -37059-2 0  9994",
        "tle_line2": "2 66897  53.1548  69.6056 0000847  60.1684 337.7530 15.93319782  2569"
      },
      "geometry": {
        "type": "Point",
        "coordinates": [
          -18.65198145728833,
          -53.008736380687864
        ]
      }
    },
    {
      "type": "Feature",
      "properties": {
        "norad_id": 66898,
        "name": "STARLINK-36065",
        "group": "last-30-days",
        "lat": -52.71579316783657,
        "lon": -14.172354951821696,
        "alt_km": 303.5849056142042,
        "timestamp": "2025-12-14T07:33:18.189278+00:00",
        "meta_object_name": "STARLINK-36065",
        "meta_object_id": "2025-283W",
        "meta_epoch": "2025-12-13T14:00:03.000384",
        "meta_mean_motion": 15.93379771,
        "meta_eccentricity": 0.0001038,
        "meta_inclination": 53.1545,
        "meta_ra_of_asc_node": 69.5996,
        "meta_arg_of_pericenter": 46.0443,
        "meta_mean_anomaly": 354.4473,
        "meta_ephemeris_type": 0,
        "meta_classification_type": "U",
        "meta_norad_cat_id": 66898,
        "meta_element_set_no": 999,
        "meta_rev_at_epoch": 256,
        "meta_bstar": -0.0036946896,
        "meta_mean_motion_dot": -0.01346283,
        "meta_mean_motion_ddot": 0.00053239279,
        "tle_line1": "1 66898U 25283W   25347.58336806 -.01346283  53239-3 -36947-2 0  9992",
        "tle_line2": "2 66898  53.1545  69.5996 0001038  46.0443 354.4473 15.93379771  2564"
      },
      "geometry": {
        "type": "Point",
        "coordinates": [
          -14.172354951821696,
          -52.71579316783657
        ]
      }
    },
    {
      "type": "Feature",
      "properties": {
        "norad_id": 66899,
        "name": "STARLINK-36064",
        "group": "last-30-days",
        "lat": -52.29091727048648,
        "lon": -10.050052073098152,
        "alt_km": 303.47675867228827,
        "timestamp": "2025-12-14T07:33:18.189290+00:00",
        "meta_object_name": "STARLINK-36064",
        "meta_object_id": "2025-283X",
        "meta_epoch": "2025-12-13T14:00:03.000384",
        "meta_mean_motion": 15.93443861,
        "meta_eccentricity": 0.00011148,
        "meta_inclination": 53.1543,
        "meta_ra_of_asc_node": 69.5948,
        "meta_arg_of_pericenter": 50.8433,
        "meta_mean_anomaly": 352.0482,
        "meta_ephemeris_type": 0,
        "meta_classification_type": "U",
        "meta_norad_cat_id": 66899,
        "meta_element_set_no": 999,
        "meta_rev_at_epoch": 250,
        "meta_bstar": -0.0037060757,
        "meta_mean_motion_dot": -0.01354911,
        "meta_mean_motion_ddot": 0.00053897166,
        "tle_line1": "1 66899U 25283X   25347.58336806 -.01354911  53897-3 -37061-2 0  9998",
        "tle_line2": "2 66899  53.1543  69.5948 0001114  50.8433 352.0482 15.93443861  2507"
      },
      "geometry": {
        "type": "Point",
        "coordinates": [
          -10.050052073098152,
          -52.29091727048648
        ]
      }
    }
  ]
}